GPS BIIR-08             
1 27663U 03005A   26116.26699801 -.00000048  00000+0  00000+0 0  9990
2 27663  54.8927 217.0313 0148193  52.9603 318.0024  2.00563332170278
GPS BIIR-11             
1 28190U 04009A   26116.53875589 -.00000049  00000+0  00000+0 0  9991
2 28190  54.8736 277.7725 0113683 170.8393 190.7377  2.00556343161915
GPS BIIR-13             
1 28474U 04045A   26116.95018872 -.00000075  00000+0  00000+0 0  9995
2 28474  55.1653 326.9597 0170081 315.0021  48.8935  2.00553528157406
GPS BIIR-14M            
1 28874U 05038A   26116.51028610 -.00000049  00000+0  00000+0 0  9996
2 28874  54.9216 275.2615 0127781 295.8485  71.6096  2.00569234150807
METEOSAT-9 (MSG-2)      
1 28912U 05049B   26116.93089426  .00000118  00000+0  00000+0 0  9995
2 28912   9.2489  54.6630 0000511 343.3476 197.6940  1.00275091  6486
GPS BIIR-16M            
1 29601U 06052A   26114.57003035 -.00000038  00000+0  00000+0 0  9998
2 29601  54.9441 216.1310 0086480  90.2480 270.7556  2.00555028142332
GPS BIIR-17M            
1 32260U 07047A   26116.86945643  .00000003  00000+0  00000+0 0  9993
2 32260  54.0586  82.1794 0164787  86.5004 275.3611  2.00557863135785
GPS BIIR-18M            
1 32384U 07062A   26116.93297485 -.00000052  00000+0  00000+0 0  9994
2 32384  55.0742 276.2115 0034581 162.4186  10.5045  2.00556888134485
GOES 14                 
1 35491U 09033A   26116.88933730 -.00000059  00000+0  00000+0 0  9997
2 35491   1.5596  83.6273 0001750 314.0551 307.8984  1.00116667  6071
GOES 15                 
1 36411U 10008A   26116.96145524  .00000012  00000+0  00000+0 0  9997
2 36411   1.1428  83.7723 0003983  23.7429 156.8227  1.00272523 59123
GSAT0101 (GALILEO-PFM)  
1 37846U 11060A   26116.22899249 -.00000091  00000+0  00000+0 0  9996
2 37846  57.0096 343.1709 0003765  27.2500 332.8105  1.70475694 90230
GSAT0102 (GALILEO-FM2)  
1 37847U 11060B   26116.45263183 -.00000091  00000+0  00000+0 0  9994
2 37847  57.0107 343.1653 0004708   9.1421 173.7389  1.70475958 90241
LUCH 5A                 
1 37951U 11074B   26116.94093641 -.00000054  00000+0  00000+0 0  9998
2 37951   8.6267  74.5459 0002739 304.9755 341.0773  1.00272965 52536
METEOSAT-10 (MSG-3)     
1 38552U 12035B   26116.63663973 -.00000015  00000+0  00000+0 0  9998
2 38552   4.5523  61.2377 0002094 312.6097  70.1584  1.00267982 50345
SARSAT 13 (METOP-B)     
1 38771U 12049A   26116.94457624  .00000110  00000+0  70169-4 0  9997
2 38771  98.6548 169.4553 0003412 123.0957 237.0548 14.21433280705984
GPS BIIF-3              
1 38833U 12053A   26113.97246792  .00000040  00000+0  00000+0 0  9997
2 38833  53.5743 145.8203 0177937  65.1328 296.7656  2.00566553 98354
GSAT0103 (GALILEO-FM3)  
1 38857U 12055A   26115.09622636  .00000047  00000+0  00000+0 0  9992
2 38857  55.7743 103.0007 0005916 295.5097  64.4243  1.70473359 84108
GPS BIIF-4              
1 39166U 13023A   26116.33094632 -.00000048  00000+0  00000+0 0  9991
2 39166  54.5462 271.0846 0141890  50.6724 310.5447  2.00563766 94842
INSAT-3D                
1 39216U 13038B   26116.94744767 -.00000348  00000+0  00000+0 0  9994
2 39216   1.7955  83.1536 0001492 282.7930 319.6017  1.00271904 46565
GPS BIIF-5              
1 39533U 14008A   26115.83306423  .00000051  00000+0  00000+0 0  9994
2 39533  53.6445 151.4553 0083783 230.1189 129.2056  2.00556415 88637
LUCH 5V                 
1 39727U 14023A   26116.94060097 -.00000276  00000+0  00000+0 0  9993
2 39727   5.0095  70.2469 0002252 339.2752 238.7943  1.00271825 43840
GPS BIIF-6              
1 39741U 14026A   26116.10890750 -.00000078  00000+0  00000+0 0  9997
2 39741  56.5221 333.5452 0038948 326.6709  33.1214  2.00564801 87495
GPS BIIF-7              
1 40105U 14045A   26116.19938925  .00000031  00000+0  00000+0 0  9998
2 40105  55.3199  90.5347 0031664 119.1386 241.1664  2.00554931 85030
GSAT0201 (GALILEO 5)    
1 40128U 14050A   26116.13529482 -.00000064  00000+0  00000+0 0  9994
2 40128  48.9332 275.5670 1666333 177.3572 183.6448  1.85519973 77352
GSAT0202 (GALILEO 6)    
1 40129U 14050B   26116.92999516 -.00000073  00000+0  00000+0 0  9991
2 40129  48.9493 274.6194 1667556 178.1198 182.5914  1.85520682 79530
GPS BIIF-8              
1 40294U 14068A   26116.07340919 -.00000098  00000+0  00000+0 0  9993
2 40294  56.9539  32.9628 0065259  68.8513 291.8470  2.00572934 84168
GLONASS-K 2             
1 40315U 14075A   26116.68219734 -.00000006  00000+0  00000+0 0  9991
2 40315  63.6141 192.1544 0021866 210.0540 149.8715  2.13101290 88759
GPS BIIF-9              
1 40534U 15013A   26115.70924992 -.00000039  00000+0  00000+0 0  9994
2 40534  53.1744 206.3479 0108874  39.9788 320.8435  2.00554458 80775
GSAT0203 (GALILEO 7)    
1 40544U 15017A   26111.90090206 -.00000083  00000+0  00000+0 0  9998
2 40544  56.8042 343.1309 0002546 315.4442  44.5780  1.70475713 68240
GSAT0204 (GALILEO 8)    
1 40545U 15017B   26115.08949468 -.00000090  00000+0  00000+0 0  9993
2 40545  56.8095 343.0621 0001552 296.0698  63.9535  1.70475480 31343
GPS BIIF-10             
1 40730U 15033A   26115.37018511 -.00000039  00000+0  00000+0 0  9998
2 40730  54.0255 269.2625 0115006  29.8840 330.7367  2.00558940 78932
METEOSAT-11 (MSG-4)     
1 40732U 15034A   26116.92370090  .00000054  00000+0  00000+0 0  9992
2 40732   3.0735  71.3747 0001592 344.6957 140.9530  1.00264171  6707
GSAT0205 (GALILEO 9)    
1 40889U 15045A   26115.63255192 -.00000038  00000+0  00000+0 0  9992
2 40889  54.9613 223.1764 0005159 266.9978  92.9342  1.67410754 66085
GSAT0206 (GALILEO 10)   
1 40890U 15045B   26115.66468946 -.00000038  00000+0  00000+0 0  9990
2 40890  54.9612 223.0540 0002188  38.1287 321.8788  1.70473961 66146
GPS BIIF-11             
1 41019U 15062A   26115.92662522 -.00000097  00000+0  00000+0 0  9993
2 41019  56.9265  32.8248 0111250 231.5206 127.4823  2.00566971 76787
ELEKTRO-L 2             
1 41105U 15074A   26116.70502002 -.00000124  00000+0  00000+0 0  9996
2 41105   6.5672  71.1430 0002287 255.9887 126.8673  1.00270591 37994
GSAT0209 (GALILEO 12)   
1 41174U 15079A   26115.24610591  .00000046  00000+0  00000+0 0  9990
2 41174  55.7962 102.7123 0005679 329.0159  30.9454  1.70474059 63871
GSAT0208 (GALILEO 11)   
1 41175U 15079B   26116.05295675  .00000046  00000+0  00000+0 0  9993
2 41175  55.7944 102.6873 0005050 330.1145  29.8515  1.70473954 64301
GPS BIIF-12             
1 41328U 16007A   26116.01441263  .00000035  00000+0  00000+0 0  9995
2 41328  55.4924  91.5265 0096118 247.0858 111.8862  2.00554140 74791
GSAT0211 (GALILEO 14)   
1 41549U 16030A   26114.41727357 -.00000030  00000+0  00000+0 0  9995
2 41549  55.1119 223.1731 0002524 359.1559   0.8397  1.70474087 61750
GSAT0210 (GALILEO 13)   
1 41550U 16030B   26115.26112393 -.00000036  00000+0  00000+0 0  9995
2 41550  55.1104 223.1480 0002810 225.6811 134.2889  1.70474037 61767
INSAT-3DR               
1 41752U 16054A   26116.96837249 -.00000088  00000+0  00000+0 0  9994
2 41752   0.1155  86.2537 0011578 195.0845 356.2288  1.00271580 35307
GSAT0207 (GALILEO 15)   
1 41859U 16069A   26116.12593912  .00000045  00000+0  00000+0 0  9994
2 41859  55.4667 102.5250 0005924 317.5272  42.4215  1.70474012 58517
GSAT0212 (GALILEO 16)   
1 41860U 16069B   26115.97942788  .00000045  00000+0  00000+0 0  9997
2 41860  55.4638 102.5243 0004656 340.7517  19.2254  1.70474171 58768
GSAT0213 (GALILEO 17)   
1 41861U 16069C   26115.17360778  .00000045  00000+0  00000+0 0  9993
2 41861  55.4662 102.5544 0005854 302.3888  57.5492  1.70474518 58614
GSAT0214 (GALILEO 18)   
1 41862U 16069D   26115.90630783  .00000045  00000+0  00000+0 0  9991
2 41862  55.4649 102.5269 0004911 307.4506  52.4995  1.70474260 58751
GOES 16                 
1 41866U 16071A   26116.90108081 -.00000102  00000+0  00000+0 0  9995
2 41866   0.2130  85.2891 0001499 251.0284  98.2535  1.00271206 34582
GSAT-17                 
1 42815U 17040B   26116.94261192 -.00000269  00000+0  00000+0 0  9998
2 42815   0.0190 251.2629 0004299  65.6857 330.8456  1.00274137 32278
GSAT0215 (GALILEO 19)   
1 43055U 17079A   26113.46347810 -.00000022  00000+0  00000+0 0  9990
2 43055  55.0907 223.0118 0001428 264.4741  95.5096  1.70474699 52058
GSAT0216 (GALILEO 20)   
1 43056U 17079B   26114.92781412 -.00000034  00000+0  00000+0 0  9996
2 43056  55.0895 222.9715 0002775 284.1808  75.7828  1.70474805 52091
GSAT0217 (GALILEO 21)   
1 43057U 17079C   26116.32174354 -.00000039  00000+0  00000+0 0  9999
2 43057  55.0878 222.9311 0002278 305.0014  54.9682  1.70474773 52108
GSAT0218 (GALILEO 22)   
1 43058U 17079D   26115.95522277 -.00000039  00000+0  00000+0 0  9999
2 43058  55.0879 222.9388 0003183 277.2874  82.6679  1.70474761 52127
GOES 17                 
1 43226U 18022A   26116.90411416 -.00000193  00000+0  00000+0 0  9994
2 43226   0.8081  86.3988 0000667 276.3071  88.1847  1.00271991 29910
GSAT0221 (GALILEO 25)   
1 43564U 18060A   26114.09926935 -.00000088  00000+0  00000+0 0  9999
2 43564  57.1855 343.2419 0003847 321.5085  38.5036  1.70475641 48245
GSAT0222 (GALILEO 26)   
1 43565U 18060B   26115.49200276 -.00000090  00000+0  00000+0 0  9991
2 43565  57.1892 343.2075 0002413 289.5902  70.4237  1.70475419 48313
GSAT0219 (GALILEO 23)   
1 43566U 18060C   26113.95323101 -.00000088  00000+0  00000+0 0  9991
2 43566  57.1884 343.2507 0003351 340.2281  19.7984  1.70475588 48268
GSAT0220 (GALILEO 24)   
1 43567U 18060D   26114.76093408 -.00000089  00000+0  00000+0 0  9997
2 43567  57.1842 343.2275 0003644  44.9018 315.1672  1.70475503 48260
BEIDOU-3 M13            
1 43622U 18072A   26116.45110574 -.00000039  00000+0  00000+0 0  9999
2 43622  56.5817  64.3658 0008851 318.4220  41.4817  1.86230936 51699
BEIDOU-3 M14            
1 43623U 18072B   26114.70569242 -.00000024  00000+0  00000+0 0  9990
2 43623  56.5822  64.4176 0006921 342.3518  17.5993  1.86231012 51655
